METHANESAT              
1 59101U 24043D   26059.90505152  .00004511  00000+0  39174-3 0  9995
2 59101  97.8258 190.5668 0010495  21.4453 338.7206 14.97497666108445
GOSAT-GW (IBUKI GW)     
1 64694U 25141A   26060.19084506 -.00001059  00000+0 -17839-3 0  9996
2 64694  98.0499 359.3114 0001379  82.8266 277.3096 14.67553256 36005
GHGSAT-C1               
1 46278U 20061G   26060.22163698  .00034525  00000+0  36896-3 0  9990
2 46278  97.2183 142.3832 0002472  94.3981 265.7561 15.63832337306564
GHGSAT-C12              
1 64529U 25135B   26060.14638497  .00004891  00000+0  23383-3 0  9991
2 64529  97.4614 176.0585 0005172 174.6338 185.4953 15.19459947 38413
GHGSAT-C13              
1 64548U 25135W   26060.13437971  .00004716  00000+0  22113-3 0  9991
2 64548  97.4642 176.4582 0002585 111.2403 248.9109 15.20158767 38439
GHGSAT-C2               
1 47509U 21006DA  26060.08546092  .00007889  00000+0  22462-3 0  9992
2 47509  97.2314 109.2090 0005200 178.3850 181.7412 15.36363132283249
GHGSAT-C3               
1 52737U 22057F   26060.19013421  .00009270  00000+0  29540-3 0  9995
2 52737  97.6407 202.0311 0007128 139.2181 220.9595 15.32752518208989
GHGSAT-C4               
1 52746U 22057Q   26060.20970144  .00009783  00000+0  31165-3 0  9996
2 52746  97.6334 200.9923 0007490 126.6045 233.5887 15.32743710208994
GHGSAT-C5               
1 52744U 22057N   26060.22751178  .00009664  00000+0  30798-3 0  9999
2 52744  97.6499 203.5176 0008044 136.5779 223.6097 15.32733093208999
GHGSAT-C6               
1 56204U 23054AC  26060.21251552  .00017971  00000+0  32662-3 0  9994
2 56204  97.3137 328.4018 0010042  78.0935 282.1441 15.49544946161713
GHGSAT-C7               
1 56209U 23054AH  26060.22935832  .00013628  00000+0  26761-3 0  9998
2 56209  97.3094 327.3794 0010138  73.3858 286.8504 15.47378690161683
GHGSAT-C8               
1 56186U 23054J   26060.18395475  .00016996  00000+0  30893-3 0  9992
2 56186  97.3103 327.7653 0007698  93.5365 266.6766 15.49578356161690
SENTINEL-5P             
1 42969U 17064A   26059.86451103  .00000077  00000+0  57460-4 0  9997
2 42969  98.7871   2.7926 0001117  81.0496 279.0806 14.19546552434191
ENMAP                   
1 52159U 22033C   26060.23372520  .00000090  00000+0  20791-4 0  9991
2 52159  97.9782 144.0188 0001033  84.0595 276.0732 14.74954141210741
PRISMA                  
1 44072U 19015A   26060.16656458  .00001163  00000+0  14721-3 0  9996
2 44072  97.8736 136.5112 0001195  99.4195 260.7154 14.83691369376035
SENTINEL-2A             
1 40697U 15028A   26056.18000490  .00000159  00000+0  76852-4 0  9999
2 40697  98.5024 132.8928 0054368 194.7437 165.2162 14.30192923557712
SENTINEL-2B             
1 42063U 17013A   26060.16553332  .00000086  00000+0  49380-4 0  9990
2 42063  98.5677 136.4828 0001085  93.8893 266.2414 14.30816134469190
SENTINEL-2C             
1 60989U 24157A   26060.13060022  .00000146  00000+0  72342-4 0  9991
2 60989  98.5634 136.4659 0000798  95.6332 264.4942 14.30821536 77531
LANDSAT 8               
1 39084U 13008A   26060.14544531  .00000433  00000+0  10598-3 0  9992
2 39084  98.1936 132.0105 0001243  90.4427 269.6913 14.57121643682163
LANDSAT 9               
1 49260U 21088A   26060.17989404  .00000448  00000+0  10946-3 0  9994
2 49260  98.1956 132.1028 0001204  89.5766 270.5570 14.57115559235274
TANAGER-1               
1 60507U 24149AR  26060.13590434  .00004612  00000+0  10468-3 0  9995
2 60507  97.3801 153.3936 0007793 219.8826 140.1850 15.43543544 86360
